{"type": "FeatureCollection", "features": [ {"type": "Feature", "properties": {"norad_id": 30967, "name": "FENGYUN 1C DEB", "group": "fengyun-1c-debris", "lat": 49.84909101921423, "lon": -80.86114375974786, "alt_km": 761.4666900679831, "timestamp": "2025-12-09T14:52:26.441638+00:00", "meta": {"OBJECT_NAME": "FENGYUN 1C DEB", "OBJECT_ID": "1999-025BBH", "EPOCH": "2025-12-08T02:22:53.243040", "MEAN_MOTION": 14.57082923, "ECCENTRICITY": 0.0094727, "INCLINATION": 98.7638, "RA_OF_ASC_NODE": 288.0764, "ARG_OF_PERICENTER": 254.0338, "MEAN_ANOMALY": 105.0406, "EPHEMERIS_TYPE": 0, "CLASSIFICATION_TYPE": "U", "NORAD_CAT_ID": 30967, "ELEMENT_SET_NO": 999, "REV_AT_EPOCH": 98946, "BSTAR": 0.0011924477, "MEAN_MOTION_DOT": 5.657e-05, "MEAN_MOTION_DDOT": 0}, "tle": {"line1": "1 30967U 99025BBH 25342.09922735  .00005657  00000+0  11924-2 0  9994", "line2": "2 30967  98.7638 288.0764 0094727 254.0338 105.0406 14.57082923989460"}}, "geometry": {"type": "Point", "coordinates": [-80.86114375974786, 49.84909101921423]}}, {"type": "Feature", "properties": {"norad_id": 30971, "name": "FENGYUN 1C DEB", "group": "fengyun-1c-debris", "lat": 80.77366973206489, "lon": -60.14632556930822, "alt_km": 688.4602248505498, "timestamp": "2025-12-09T14:52:26.441648+00:00", "meta": {"OBJECT_NAME": "FENGYUN 1C DEB", "OBJECT_ID": "1999-025BBM", "EPOCH": "2025-12-08T21:19:11.497728", "MEAN_MOTION": 14.71646758, "ECCENTRICITY": 0.0163741, "INCLINATION": 99.2095, "RA_OF_ASC_NODE": 26.2325, "ARG_OF_PERICENTER": 203.0757, "MEAN_ANOMALY": 335.4523, "EPHEMERIS_TYPE": 0, "CLASSIFICATION_TYPE": "U", "NORAD_CAT_ID": 30971, "ELEMENT_SET_NO": 999, "REV_AT_EPOCH": 99660, "BSTAR": 0.00075281, "MEAN_MOTION_DOT": 5.715e-05, "MEAN_MOTION_DDOT": 0}, "tle": {"line1": "1 30971U 99025BBM 25342.88832752  .00005715  00000+0  75281-3 0  9997", "line2": "2 30971  99.2095  26.2325 0163741 203.0757 335.4523 14.71646758996606"}}, "geometry": {"type": "Point", "coordinates": [-60.14632556930822, 80.77366973206489]}}, {"type": "Feature", "properties": {"norad_id": 30979, "name": "FENGYUN 1C DEB", "group": "fengyun-1c-debris", "lat": 66.03556843735707, "lon": -135.88705444888384, "alt_km": 760.3108775437868, "timestamp": "2025-12-09T14:52:26.441659+00:00", "meta": {"OBJECT_NAME": "FENGYUN 1C DEB", "OBJECT_ID": "1999-025BBV", "EPOCH": "2025-12-08T15:57:43.223040", "MEAN_MOTION": 14.78649196, "ECCENTRICITY": 0.0190564, "INCLINATION": 97.8296, "RA_OF_ASC_NODE": 241.2172, "ARG_OF_PERICENTER": 254.5585, "MEAN_ANOMALY": 133.8316, "EPHEMERIS_TYPE": 0, "CLASSIFICATION_TYPE": "U", "NORAD_CAT_ID": 30979, "ELEMENT_SET_NO": 999, "REV_AT_EPOCH": 99085, "BSTAR": 0.0014898, "MEAN_MOTION_DOT": 0.00014792, "MEAN_MOTION_DDOT": 0}, "tle": {"line1": "1 30979U 99025BBV 25342.66508360  .00014792  00000+0  14898-2 0  9997", "line2": "2 30979  97.8296 241.2172 0190564 254.5585 133.8316 14.78649196990850"}}, "geometry": {"type": "Point", "coordinates": [-135.88705444888384, 66.03556843735707]}}, {"type": "Feature", "properties": {"norad_id": 30982, "name": "FENGYUN 1C DEB", "group": "fengyun-1c-debris", "lat": -52.114587656468224, "lon": 143.22197278547827, "alt_km": 725.9100593583407, "timestamp": "2025-12-09T14:52:26.441669+00:00", "meta": {"OBJECT_NAME": "FENGYUN 1C DEB", "OBJECT_ID": "1999-025BBY", "EPOCH": "2025-12-08T04:57:19.053792", "MEAN_MOTION": 14.50924731, "ECCENTRICITY": 0.01808208, "INCLINATION": 98.2174, "RA_OF_ASC_NODE": 332.5442, "ARG_OF_PERICENTER": 326.5603, "MEAN_ANOMALY": 90.6142, "EPHEMERIS_TYPE": 0, "CLASSIFICATION_TYPE": "U", "NORAD_CAT_ID": 30982, "ELEMENT_SET_NO": 999, "REV_AT_EPOCH": 70988, "BSTAR": 0.00064733556, "MEAN_MOTION_DOT": 3.106e-05, "MEAN_MOTION_DDOT": 0}, "tle": {"line1": "1 30982U 99025BBY 25342.20647053  .00003106  00000+0  64734-3 0  9996", "line2": "2 30982  98.2174 332.5442 0180820 326.5603  90.6142 14.50924731709882"}}, "geometry": {"type": "Point", "coordinates": [143.22197278547827, -52.114587656468224]}}, {"type": "Feature", "properties": {"norad_id": 30984, "name": "FENGYUN 1C DEB", "group": "fengyun-1c-debris", "lat": 59.21697414140233, "lon": -145.86594123181968, "alt_km": 736.4575773437527, "timestamp": "2025-12-09T14:52:26.441679+00:00", "meta": {"OBJECT_NAME": "FENGYUN 1C DEB", "OBJECT_ID": "1999-025BCA", "EPOCH": "2025-12-08T20:07:13.112544", "MEAN_MOTION": 14.50394296, "ECCENTRICITY": 0.01276924, "INCLINATION": 98.2633, "RA_OF_ASC_NODE": 19.2473, "ARG_OF_PERICENTER": 20.0218, "MEAN_ANOMALY": 340.5922, "EPHEMERIS_TYPE": 0, "CLASSIFICATION_TYPE": "U", "NORAD_CAT_ID": 30984, "ELEMENT_SET_NO": 999, "REV_AT_EPOCH": 95107, "BSTAR": 0.0012861605, "MEAN_MOTION_DOT": 5.532e-05, "MEAN_MOTION_DDOT": 0}, "tle": {"line1": "1 30984U 99025BCA 25342.83834621  .00005532  00000+0  12862-2 0  9995", "line2": "2 30984  98.2633  19.2473 0127692  20.0218 340.5922 14.50394296951073"}}, "geometry": {"type": "Point", "coordinates": [-145.86594123181968, 59.21697414140233]}}, {"type": "Feature", "properties": {"norad_id": 30988, "name": "FENGYUN 1C DEB", "group": "fengyun-1c-debris", "lat": -45.68076019759116, "lon": -60.604704040399426, "alt_km": 432.4952620523354, "timestamp": "2025-12-09T14:52:26.441689+00:00", "meta": {"OBJECT_NAME": "FENGYUN 1C DEB", "OBJECT_ID": "1999-025BCE", "EPOCH": "2025-12-09T02:28:44.538528", "MEAN_MOTION": 15.25498051, "ECCENTRICITY": 0.01154018, "INCLINATION": 98.5417, "RA_OF_ASC_NODE": 289.9521, "ARG_OF_PERICENTER": 352.8157, "MEAN_ANOMALY": 7.1418, "EPHEMERIS_TYPE": 0, "CLASSIFICATION_TYPE": "U", "NORAD_CAT_ID": 30988, "ELEMENT_SET_NO": 999, "REV_AT_EPOCH": 99508, "BSTAR": 0.0026233679, "MEAN_MOTION_DOT": 0.00081184, "MEAN_MOTION_DDOT": 0}, "tle": {"line1": "1 30988U 99025BCE 25343.10329327  .00081184  00000+0  26234-2 0  9997", "line2": "2 30988  98.5417 289.9521 0115401 352.8157   7.1418 15.25498051995085"}}, "geometry": {"type": "Point", "coordinates": [-60.604704040399426, -45.68076019759116]}}, {"type": "Feature", "properties": {"norad_id": 30989, "name": "FENGYUN 1C DEB", "group": "fengyun-1c-debris", "lat": -80.63109980221043, "lon": 162.07156315133884, "alt_km": 914.9062407047613, "timestamp": "2025-12-09T14:52:26.441700+00:00", "meta": {"OBJECT_NAME": "FENGYUN 1C DEB", "OBJECT_ID": "1999-025BCF", "EPOCH": "2025-12-09T03:25:42.115584", "MEAN_MOTION": 14.13901685, "ECCENTRICITY": 0.00913676, "INCLINATION": 99.0525, "RA_OF_ASC_NODE": 56.6633, "ARG_OF_PERICENTER": 109.9448, "MEAN_ANOMALY": 251.1594, "EPHEMERIS_TYPE": 0, "CLASSIFICATION_TYPE": "U", "NORAD_CAT_ID": 30989, "ELEMENT_SET_NO": 999, "REV_AT_EPOCH": 95937, "BSTAR": 0.001891421, "MEAN_MOTION_DOT": 3.689e-05, "MEAN_MOTION_DDOT": 0}, "tle": {"line1": "1 30989U 99025BCF 25343.14284856  .00003689  00000+0  18914-2 0  9999", "line2": "2 30989  99.0525  56.6633 0091367 109.9448 251.1594 14.13901685959379"}}, "geometry": {"type": "Point", "coordinates": [162.07156315133884, -80.63109980221043]}}, {"type": "Feature", "properties": {"norad_id": 30993, "name": "FENGYUN 1C DEB", "group": "fengyun-1c-debris", "lat": -36.36466776555489, "lon": 82.56587366713921, "alt_km": 774.4893180488853, "timestamp": "2025-12-09T14:52:26.441710+00:00", "meta": {"OBJECT_NAME": "FENGYUN 1C DEB", "OBJECT_ID": "1999-025BCK", "EPOCH": "2025-12-09T05:17:41.225856", "MEAN_MOTION": 14.35364925, "ECCENTRICITY": 0.00164014, "INCLINATION": 98.8461, "RA_OF_ASC_NODE": 75.5724, "ARG_OF_PERICENTER": 25.7979, "MEAN_ANOMALY": 36.3097, "EPHEMERIS_TYPE": 0, "CLASSIFICATION_TYPE": "U", "NORAD_CAT_ID": 30993, "ELEMENT_SET_NO": 999, "REV_AT_EPOCH": 96869, "BSTAR": 0.002650171, "MEAN_MOTION_DOT": 7.576e-05, "MEAN_MOTION_DDOT": 0}, "tle": {"line1": "1 30993U 99025BCK 25343.22061604  .00007576  00000+0  26502-2 0  9998", "line2": "2 30993  98.8461  75.5724 0016401  25.7979  36.3097 14.35364925968691"}}, "geometry": {"type": "Point", "coordinates": [82.56587366713921, -36.36466776555489]}}, {"type": "Feature", "properties": {"norad_id": 30994, "name": "FENGYUN 1C DEB", "group": "fengyun-1c-debris", "lat": -80.6327912526097, "lon": 104.00016477130433, "alt_km": 859.0693182648229, "timestamp": "2025-12-09T14:52:26.441721+00:00", "meta": {"OBJECT_NAME": "FENGYUN 1C DEB", "OBJECT_ID": "1999-025BCL", "EPOCH": "2025-12-09T06:48:44.570880", "MEAN_MOTION": 14.11767883, "ECCENTRICITY": 0.00176708, "INCLINATION": 98.7001, "RA_OF_ASC_NODE": 351.8334, "ARG_OF_PERICENTER": 184.5056, "MEAN_ANOMALY": 175.596, "EPHEMERIS_TYPE": 0, "CLASSIFICATION_TYPE": "U", "NORAD_CAT_ID": 30994, "ELEMENT_SET_NO": 999, "REV_AT_EPOCH": 96536, "BSTAR": 0.00024173611, "MEAN_MOTION_DOT": 3.99e-06, "MEAN_MOTION_DDOT": 0}, "tle": {"line1": "1 30994U 99025BCL 25343.28384920  .00000399  00000+0  24174-3 0  9994", "line2": "2 30994  98.7001 351.8334 0017670 184.5056 175.5960 14.11767883965367"}}, "geometry": {"type": "Point", "coordinates": [104.00016477130433, -80.6327912526097]}}, {"type": "Feature", "properties": {"norad_id": 30996, "name": "FENGYUN 1C DEB", "group": "fengyun-1c-debris", "lat": -35.956092521810525, "lon": 61.905152817417765, "alt_km": 776.6101124916804, "timestamp": "2025-12-09T14:52:26.441731+00:00", "meta": {"OBJECT_NAME": "FENGYUN 1C DEB", "OBJECT_ID": "1999-025BCN", "EPOCH": "2025-12-08T16:15:19.171872", "MEAN_MOTION": 14.35376302, "ECCENTRICITY": 0.00503964, "INCLINATION": 98.9438, "RA_OF_ASC_NODE": 247.4881, "ARG_OF_PERICENTER": 303.9473, "MEAN_ANOMALY": 85.7966, "EPHEMERIS_TYPE": 0, "CLASSIFICATION_TYPE": "U", "NORAD_CAT_ID": 30996, "ELEMENT_SET_NO": 999, "REV_AT_EPOCH": 97505, "BSTAR": 0.0016670144, "MEAN_MOTION_DOT": 4.808e-05, "MEAN_MOTION_DDOT": 0}, "tle": {"line1": "1 30996U 99025BCN 25342.67730523  .00004808  00000+0  16670-2 0  9992", "line2": "2 30996  98.9438 247.4881 0050396 303.9473  85.7966 14.35376302975057"}}, "geometry": {"type": "Point", "coordinates": [61.905152817417765, -35.956092521810525]}}]}